[{"OBJECT_NAME":"QIANFAN-72","OBJECT_ID":"2025-016T","EPOCH":"2026-03-09T21:35:23.390592","MEAN_MOTION":13.50996384,"ECCENTRICITY":0.00211491,"INCLINATION":88.9668,"RA_OF_ASC_NODE":94.0626,"ARG_OF_PERICENTER":103.1893,"MEAN_ANOMALY":257.1619,"EPHEMERIS_TYPE":0,"CLASSIFICATION_TYPE":"U","NORAD_CAT_ID":62802,"ELEMENT_SET_NO":999,"REV_AT_EPOCH":5899,"BSTAR":2.63669e-5,"MEAN_MOTION_DOT":2.9e-7,"MEAN_MOTION_DDOT":0},{"OBJECT_NAME":"THORAD AGENA D DEB","OBJECT_ID":"1970-025SM","EPOCH":"2026-03-08T13:36:49.462560","MEAN_MOTION":13.50285123,"ECCENTRICITY":0.00539687,"INCLINATION":99.7788,"RA_OF_ASC_NODE":185.0185,"ARG_OF_PERICENTER":168.4891,"MEAN_ANOMALY":210.9514,"EPHEMERIS_TYPE":0,"CLASSIFICATION_TYPE":"U","NORAD_CAT_ID":42531,"ELEMENT_SET_NO":999,"REV_AT_EPOCH":60523,"BSTAR":0.00056997178,"MEAN_MOTION_DOT":3.24e-6,"MEAN_MOTION_DDOT":0}]
